[{"OBJECT_NAME":"OBJECT K","OBJECT_ID":"2024-205K","EPOCH":"2026-03-09T22:22:01.331040","MEAN_MOTION":15.27932792,"ECCENTRICITY":0.00106729,"INCLINATION":97.417,"RA_OF_ASC_NODE":146.2172,"ARG_OF_PERICENTER":37.4736,"MEAN_ANOMALY":322.7246,"EPHEMERIS_TYPE":0,"CLASSIFICATION_TYPE":"U","NORAD_CAT_ID":61903,"ELEMENT_SET_NO":999,"REV_AT_EPOCH":7347,"BSTAR":0.00067315144,"MEAN_MOTION_DOT":0.00018331,"MEAN_MOTION_DDOT":0},{"OBJECT_NAME":"STARLINK-35932","OBJECT_ID":"2025-265L","EPOCH":"2026-03-08T15:20:09.391776","MEAN_MOTION":15.27602763,"ECCENTRICITY":3.232e-5,"INCLINATION":42.9979,"RA_OF_ASC_NODE":283.7947,"ARG_OF_PERICENTER":336.752,"MEAN_ANOMALY":23.3317,"EPHEMERIS_TYPE":0,"CLASSIFICATION_TYPE":"U","NORAD_CAT_ID":66526,"ELEMENT_SET_NO":999,"REV_AT_EPOCH":1695,"BSTAR":0.001494568,"MEAN_MOTION_DOT":0.00041123,"MEAN_MOTION_DDOT":0}]
